start=new Date('2021-10-28T00:00:00.000Z').valueOf();
sats=[{"DECAY_DATE":null,"CLASSIFICATION_TYPE":"U","MEAN_ANOMALY":"259.6091","MEAN_MOTION_DDOT":"0.0000000000000","SITE":"AFETR","APOAPSIS":"548.062","TLE_LINE1":"1 45558U 20025AD  21300.63387129  .00001549  00000-0  12282-3 0  9998","NORAD_CAT_ID":"45558","CENTER_NAME":"EARTH","RCS_SIZE":"LARGE","RA_OF_ASC_NODE":"42.6203","COUNTRY_CODE":"US","ARG_OF_PERICENTER":"100.5039","MEAN_ELEMENT_THEORY":"SGP4","LAUNCH_DATE":"2020-04-22","REF_FRAME":"TEME","EPHEMERIS_TYPE":"0","TIME_SYSTEM":"UTC","TLE_LINE2":"2 45558  53.0551  42.6203 0001252 100.5039 259.6091 15.06405987 84507","PERIOD":"95.592","OBJECT_ID":"2020-025AD","SEMIMAJOR_AXIS":"6925.330","ECCENTRICITY":"0.00012520","OBJECT_NAME":"STARLINK-1342","MEAN_MOTION":"15.06405987","ELEMENT_SET_NO":"999","MEAN_MOTION_DOT":"0.00001549","INCLINATION":"53.0551","PERIAPSIS":"546.328","REV_AT_EPOCH":"8450","BSTAR":"0.00012282000000","EPOCH":"2021-10-27T15:12:46.479456","OBJECT_TYPE":"PAYLOAD","GP_ID":"188275009","FILE":"3187215"},{"TIME_SYSTEM":"UTC","EPHEMERIS_TYPE":"0","TLE_LINE2":"2 45559  53.0554  42.4491 0000947  94.4048 265.7049 15.06408053 84518","PERIOD":"95.592","OBJECT_ID":"2020-025AE","SEMIMAJOR_AXIS":"6925.324","OBJECT_NAME":"STARLINK-1344","ECCENTRICITY":"0.00009470","MEAN_MOTION":"15.06408053","MEAN_MOTION_DOT":"-0.00002068","ELEMENT_SET_NO":"999","INCLINATION":"53.0554","REV_AT_EPOCH":"8451","PERIAPSIS":"546.533","BSTAR":"-0.00011999000000","EPOCH":"2021-10-27T16:05:51.462528","OBJECT_TYPE":"PAYLOAD","GP_ID":"188275526","FILE":"3187260","CLASSIFICATION_TYPE":"U","DECAY_DATE":null,"MEAN_ANOMALY":"265.7049","MEAN_MOTION_DDOT":"0.0000000000000","SITE":"AFETR","APOAPSIS":"547.845","TLE_LINE1":"1 45559U 20025AE  21300.67073452 -.00002068  00000-0 -11999-3 0  9997","CENTER_NAME":"EARTH","NORAD_CAT_ID":"45559","RCS_SIZE":"LARGE","COUNTRY_CODE":"US","RA_OF_ASC_NODE":"42.4491","ARG_OF_PERICENTER":"94.4048","MEAN_ELEMENT_THEORY":"SGP4","LAUNCH_DATE":"2020-04-22","REF_FRAME":"TEME"},{"FILE":"3187107","GP_ID":"188270438","BSTAR":"0.00006025600000","EPOCH":"2021-10-27T06:12:43.018272","OBJECT_TYPE":"PAYLOAD","REV_AT_EPOCH":"8519","PERIAPSIS":"546.174","MEAN_MOTION":"15.06405370","MEAN_MOTION_DOT":"0.00000616","ELEMENT_SET_NO":"999","ECCENTRICITY":"0.00014780","OBJECT_NAME":"STARLINK-1346","INCLINATION":"53.0562","TIME_SYSTEM":"UTC","EPHEMERIS_TYPE":"0","OBJECT_ID":"2020-025AF","SEMIMAJOR_AXIS":"6925.332","TLE_LINE2":"2 45560  53.0562  34.3030 0001478  84.4113 275.7045 15.06405370 85191","PERIOD":"95.592","ARG_OF_PERICENTER":"84.4113","LAUNCH_DATE":"2020-04-22","REF_FRAME":"TEME","MEAN_ELEMENT_THEORY":"SGP4","CENTER_NAME":"EARTH","NORAD_CAT_ID":"45560","RA_OF_ASC_NODE":"34.3030","COUNTRY_CODE":"US","RCS_SIZE":"LARGE","TLE_LINE1":"1 45560U 20025AF  21300.25883123  .00000616  00000-0  60256-4 0  9993","APOAPSIS":"548.221","CLASSIFICATION_TYPE":"U","DECAY_DATE":null,"MEAN_ANOMALY":"275.7045","MEAN_MOTION_DDOT":"0.0000000000000","SITE":"AFETR"},{"SITE":"AFETR","MEAN_MOTION_DDOT":"0.0000000000000","MEAN_ANOMALY":"308.1261","CLASSIFICATION_TYPE":"U","DECAY_DATE":null,"TLE_LINE1":"1 45561U 20025AG  21300.55351024  .00006665  00000-0  45394-3 0  9992","APOAPSIS":"544.686","COUNTRY_CODE":"US","RA_OF_ASC_NODE":"317.6664","RCS_SIZE":"LARGE","NORAD_CAT_ID":"45561","CENTER_NAME":"EARTH","REF_FRAME":"TEME","LAUNCH_DATE":"2020-04-22","MEAN_ELEMENT_THEORY":"SGP4","ARG_OF_PERICENTER":"51.9787","SEMIMAJOR_AXIS":"6922.372","OBJECT_ID":"2020-025AG","PERIOD":"95.531","TLE_LINE2":"2 45561  53.0594 317.6664 0000648  51.9787 308.1261 15.07371707 85706","TIME_SYSTEM":"UTC","EPHEMERIS_TYPE":"0","INCLINATION":"53.0594","MEAN_MOTION_DOT":"0.00006665","ELEMENT_SET_NO":"999","MEAN_MOTION":"15.07371707","ECCENTRICITY":"0.00006480","OBJECT_NAME":"STARLINK-1348","OBJECT_TYPE":"PAYLOAD","EPOCH":"2021-10-27T13:17:03.284736","BSTAR":"0.00045394000000","PERIAPSIS":"543.788","REV_AT_EPOCH":"8570","FILE":"3187222","GP_ID":"188275024"},{"REV_AT_EPOCH":"8505","PERIAPSIS":"546.127","BSTAR":"0.00005823900000","EPOCH":"2021-10-27T06:43:13.713312","OBJECT_TYPE":"PAYLOAD","GP_ID":"188271440","FILE":"3187107","EPHEMERIS_TYPE":"0","TIME_SYSTEM":"UTC","TLE_LINE2":"2 45562  53.0547  44.2060 0001523  87.2141 272.9023 15.06410247 85051","PERIOD":"95.591","OBJECT_ID":"2020-025AH","SEMIMAJOR_AXIS":"6925.317","ECCENTRICITY":"0.00015230","OBJECT_NAME":"STARLINK-1354","MEAN_MOTION":"15.06410247","MEAN_MOTION_DOT":"0.00000586","ELEMENT_SET_NO":"999","INCLINATION":"53.0547","NORAD_CAT_ID":"45562","CENTER_NAME":"EARTH","RCS_SIZE":"LARGE","COUNTRY_CODE":"US","RA_OF_ASC_NODE":"44.2060","ARG_OF_PERICENTER":"87.2141","MEAN_ELEMENT_THEORY":"SGP4","LAUNCH_DATE":"2020-04-22","REF_FRAME":"TEME","DECAY_DATE":null,"CLASSIFICATION_TYPE":"U","MEAN_ANOMALY":"272.9023","MEAN_MOTION_DDOT":"0.0000000000000","SITE":"AFETR","APOAPSIS":"548.237","TLE_LINE1":"1 45562U 20025AH  21300.28001983  .00000586  00000-0  58239-4 0  9998"},{"GP_ID":"188274865","FILE":"3187222","PERIAPSIS":"546.374","REV_AT_EPOCH":"8451","OBJECT_TYPE":"PAYLOAD","EPOCH":"2021-10-27T16:37:42.235680","BSTAR":"-0.00005213000000","ECCENTRICITY":"0.00012260","OBJECT_NAME":"STARLINK-1355","ELEMENT_SET_NO":"999","MEAN_MOTION_DOT":"-0.00001058","MEAN_MOTION":"15.06397045","INCLINATION":"53.0565","EPHEMERIS_TYPE":"0","TIME_SYSTEM":"UTC","PERIOD":"95.592","TLE_LINE2":"2 45563  53.0565  42.3557 0001226  93.8872 266.2257 15.06397045 84511","SEMIMAJOR_AXIS":"6925.358","OBJECT_ID":"2020-025AJ","ARG_OF_PERICENTER":"93.8872","MEAN_ELEMENT_THEORY":"SGP4","REF_FRAME":"TEME","LAUNCH_DATE":"2020-04-22","NORAD_CAT_ID":"45563","CENTER_NAME":"EARTH","RCS_SIZE":"LARGE","COUNTRY_CODE":"US","RA_OF_ASC_NODE":"42.3557","APOAPSIS":"548.072","TLE_LINE1":"1 45563U 20025AJ  21300.69284995 -.00001058  00000-0 -52130-4 0  9991","MEAN_ANOMALY":"266.2257","DECAY_DATE":null,"CLASSIFICATION_TYPE":"U","SITE":"AFETR","MEAN_MOTION_DDOT":"0.0000000000000"},{"MEAN_MOTION":"15.06397211","ELEMENT_SET_NO":"999","MEAN_MOTION_DOT":"0.00000756","OBJECT_NAME":"STARLINK-1356","ECCENTRICITY":"0.00012440","INCLINATION":"53.0547","EPHEMERIS_TYPE":"0","TIME_SYSTEM":"UTC","OBJECT_ID":"2020-025AK","SEMIMAJOR_AXIS":"6925.357","TLE_LINE2":"2 45564  53.0547  42.3655 0001244  92.0409 268.0722 15.06397211 84510","PERIOD":"95.592","FILE":"3187434","GP_ID":"188280225","BSTAR":"0.00006964900000","OBJECT_TYPE":"PAYLOAD","EPOCH":"2021-10-27T16:32:24.160992","REV_AT_EPOCH":"8451","PERIAPSIS":"546.361","TLE_LINE1":"1 45564U 20025AK  21300.68916853  .00000756  00000-0  69649-4 0  9991","APOAPSIS":"548.084","CLASSIFICATION_TYPE":"U","DECAY_DATE":null,"MEAN_ANOMALY":"268.0722","MEAN_MOTION_DDOT":"0.0000000000000","SITE":"AFETR","ARG_OF_PERICENTER":"92.0409","LAUNCH_DATE":"2020-04-22","REF_FRAME":"TEME","MEAN_ELEMENT_THEORY":"SGP4","CENTER_NAME":"EARTH","NORAD_CAT_ID":"45564","COUNTRY_CODE":"US","RA_OF_ASC_NODE":"42.3655","RCS_SIZE":"LARGE"},{"EPHEMERIS_TYPE":"0","TIME_SYSTEM":"UTC","TLE_LINE2":"2 45565  53.0554  42.4029 0001265 100.5668 259.5464 15.06401119 84511","PERIOD":"95.592","OBJECT_ID":"2020-025AL","SEMIMAJOR_AXIS":"6925.345","OBJECT_NAME":"STARLINK-1357","ECCENTRICITY":"0.00012650","MEAN_MOTION":"15.06401119","ELEMENT_SET_NO":"999","MEAN_MOTION_DOT":"0.00000711","INCLINATION":"53.0554","REV_AT_EPOCH":"8451","PERIAPSIS":"546.334","BSTAR":"0.00006664200000","EPOCH":"2021-10-27T16:21:46.831392","OBJECT_TYPE":"PAYLOAD","GP_ID":"188274867","FILE":"3187222","CLASSIFICATION_TYPE":"U","DECAY_DATE":null,"MEAN_ANOMALY":"259.5464","MEAN_MOTION_DDOT":"0.0000000000000","SITE":"AFETR","APOAPSIS":"548.086","TLE_LINE1":"1 45565U 20025AL  21300.68179203  .00000711  00000-0  66642-4 0  9993","NORAD_CAT_ID":"45565","CENTER_NAME":"EARTH","RCS_SIZE":"LARGE","RA_OF_ASC_NODE":"42.4029","COUNTRY_CODE":"US","ARG_OF_PERICENTER":"100.5668","MEAN_ELEMENT_THEORY":"SGP4","LAUNCH_DATE":"2020-04-22","REF_FRAME":"TEME"},{"INCLINATION":"53.0558","ELEMENT_SET_NO":"999","MEAN_MOTION_DOT":"0.00001262","MEAN_MOTION":"15.06409591","ECCENTRICITY":"0.00009650","OBJECT_NAME":"STARLINK-1358","SEMIMAJOR_AXIS":"6925.319","OBJECT_ID":"2020-025AM","PERIOD":"95.592","TLE_LINE2":"2 45566  53.0558  42.3421 0000965  93.4994 266.6105 15.06409591 84512","TIME_SYSTEM":"UTC","EPHEMERIS_TYPE":"0","FILE":"3187434","GP_ID":"188279732","OBJECT_TYPE":"PAYLOAD","EPOCH":"2021-10-27T16:43:00.783840","BSTAR":"0.00010359000000","REV_AT_EPOCH":"8451","PERIAPSIS":"546.516","TLE_LINE1":"1 45566U 20025AM  21300.69653685  .00001262  00000-0  10359-3 0  9991","APOAPSIS":"547.852","SITE":"AFETR","MEAN_MOTION_DDOT":"0.0000000000000","MEAN_ANOMALY":"266.6105","CLASSIFICATION_TYPE":"U","DECAY_DATE":null,"REF_FRAME":"TEME","LAUNCH_DATE":"2020-04-22","MEAN_ELEMENT_THEORY":"SGP4","ARG_OF_PERICENTER":"93.4994","COUNTRY_CODE":"US","RA_OF_ASC_NODE":"42.3421","RCS_SIZE":"LARGE","NORAD_CAT_ID":"45566","CENTER_NAME":"EARTH"},{"SITE":"AFETR","MEAN_MOTION_DDOT":"0.0000000000000","MEAN_ANOMALY":"268.9601","DECAY_DATE":null,"CLASSIFICATION_TYPE":"U","APOAPSIS":"548.128","TLE_LINE1":"1 45567U 20025AN  21300.64125185 -.00001417  00000-0 -76238-4 0  9999","RCS_SIZE":"LARGE","COUNTRY_CODE":"US","RA_OF_ASC_NODE":"42.5828","NORAD_CAT_ID":"45567","CENTER_NAME":"EARTH","MEAN_ELEMENT_THEORY":"SGP4","REF_FRAME":"TEME","LAUNCH_DATE":"2020-04-22","ARG_OF_PERICENTER":"91.1539","PERIOD":"95.592","TLE_LINE2":"2 45567  53.0553  42.5828 0001312  91.1539 268.9601 15.06398195 84500","SEMIMAJOR_AXIS":"6925.354","OBJECT_ID":"2020-025AN","TIME_SYSTEM":"UTC","EPHEMERIS_TYPE":"0","INCLINATION":"53.0553","ECCENTRICITY":"0.00013120","OBJECT_NAME":"STARLINK-1361","MEAN_MOTION_DOT":"-0.00001417","ELEMENT_SET_NO":"999","MEAN_MOTION":"15.06398195","PERIAPSIS":"546.310","REV_AT_EPOCH":"8450","OBJECT_TYPE":"PAYLOAD","EPOCH":"2021-10-27T15:23:24.159840","BSTAR":"-0.00007623800000","GP_ID":"188274910","FILE":"3187218"}];
